[{"OBJECT_NAME":"STARLINK-34113","OBJECT_ID":"2025-101S","EPOCH":"2025-12-15T14:42:14.599008","MEAN_MOTION":15.27601589,"ECCENTRICITY":0.00018013,"INCLINATION":43.0015,"RA_OF_ASC_NODE":113.0516,"ARG_OF_PERICENTER":275.3983,"MEAN_ANOMALY":84.6663,"EPHEMERIS_TYPE":0,"CLASSIFICATION_TYPE":"U","NORAD_CAT_ID":64010,"ELEMENT_SET_NO":999,"REV_AT_EPOCH":3419,"BSTAR":0.00066065416,"MEAN_MOTION_DOT":0.00017974,"MEAN_MOTION_DDOT":0},{"OBJECT_NAME":"STARLINK-34193","OBJECT_ID":"2025-101T","EPOCH":"2025-12-15T16:14:33.658944","MEAN_MOTION":15.27585433,"ECCENTRICITY":0.00028644,"INCLINATION":43.0019,"RA_OF_ASC_NODE":112.6736,"ARG_OF_PERICENTER":299.4216,"MEAN_ANOMALY":60.635,"EPHEMERIS_TYPE":0,"CLASSIFICATION_TYPE":"U","NORAD_CAT_ID":64011,"ELEMENT_SET_NO":999,"REV_AT_EPOCH":3420,"BSTAR":0.00059288361,"MEAN_MOTION_DOT":0.00016092,"MEAN_MOTION_DDOT":0},{"OBJECT_NAME":"STARLINK-34078","OBJECT_ID":"2025-101U","EPOCH":"2025-12-15T16:51:20.787552","MEAN_MOTION":15.2757278,"ECCENTRICITY":0.00014903,"INCLINATION":42.9997,"RA_OF_ASC_NODE":111.9994,"ARG_OF_PERICENTER":282.2659,"MEAN_ANOMALY":77.8026,"EPHEMERIS_TYPE":0,"CLASSIFICATION_TYPE":"U","NORAD_CAT_ID":64012,"ELEMENT_SET_NO":999,"REV_AT_EPOCH":3421,"BSTAR":0.0009533668,"MEAN_MOTION_DOT":0.0002606,"MEAN_MOTION_DDOT":0},{"OBJECT_NAME":"STARLINK-34182","OBJECT_ID":"2025-101V","EPOCH":"2025-12-15T19:27:15.992928","MEAN_MOTION":15.27597242,"ECCENTRICITY":0.00016197,"INCLINATION":43.0001,"RA_OF_ASC_NODE":108.4939,"ARG_OF_PERICENTER":266.523,"MEAN_ANOMALY":93.5436,"EPHEMERIS_TYPE":0,"CLASSIFICATION_TYPE":"U","NORAD_CAT_ID":64013,"ELEMENT_SET_NO":999,"REV_AT_EPOCH":3426,"BSTAR":0.00070410804,"MEAN_MOTION_DOT":0.00019174,"MEAN_MOTION_DDOT":0},{"OBJECT_NAME":"STARLINK-34192","OBJECT_ID":"2025-101W","EPOCH":"2025-12-15T10:10:52.922496","MEAN_MOTION":15.27589853,"ECCENTRICITY":0.00021471,"INCLINATION":43.0011,"RA_OF_ASC_NODE":114.2148,"ARG_OF_PERICENTER":280.0659,"MEAN_ANOMALY":79.995,"EPHEMERIS_TYPE":0,"CLASSIFICATION_TYPE":"U","NORAD_CAT_ID":64014,"ELEMENT_SET_NO":999,"REV_AT_EPOCH":3416,"BSTAR":0.00058691339,"MEAN_MOTION_DOT":0.00015928,"MEAN_MOTION_DDOT":0},{"OBJECT_NAME":"STARLINK-34093","OBJECT_ID":"2025-101X","EPOCH":"2025-12-15T17:00:35.447040","MEAN_MOTION":15.27562557,"ECCENTRICITY":0.00015564,"INCLINATION":42.9978,"RA_OF_ASC_NODE":112.0467,"ARG_OF_PERICENTER":282.7423,"MEAN_ANOMALY":77.3255,"EPHEMERIS_TYPE":0,"CLASSIFICATION_TYPE":"U","NORAD_CAT_ID":64015,"ELEMENT_SET_NO":999,"REV_AT_EPOCH":3421,"BSTAR":0.00050162221,"MEAN_MOTION_DOT":0.0001356,"MEAN_MOTION_DDOT":0},{"OBJECT_NAME":"STARLINK-34016","OBJECT_ID":"2025-101Y","EPOCH":"2025-12-15T16:53:09.992832","MEAN_MOTION":15.27650281,"ECCENTRICITY":0.00018571,"INCLINATION":42.9959,"RA_OF_ASC_NODE":112.0035,"ARG_OF_PERICENTER":286.7456,"MEAN_ANOMALY":73.3192,"EPHEMERIS_TYPE":0,"CLASSIFICATION_TYPE":"U","NORAD_CAT_ID":64016,"ELEMENT_SET_NO":999,"REV_AT_EPOCH":3421,"BSTAR":0.0015131001,"MEAN_MOTION_DOT":0.00041701,"MEAN_MOTION_DDOT":0},{"OBJECT_NAME":"STARLINK-34161","OBJECT_ID":"2025-101Z","EPOCH":"2025-12-15T20:14:27.517056","MEAN_MOTION":15.27602612,"ECCENTRICITY":0.00013136,"INCLINATION":42.9981,"RA_OF_ASC_NODE":111.335,"ARG_OF_PERICENTER":271.584,"MEAN_ANOMALY":88.4861,"EPHEMERIS_TYPE":0,"CLASSIFICATION_TYPE":"U","NORAD_CAT_ID":64017,"ELEMENT_SET_NO":999,"REV_AT_EPOCH":3423,"BSTAR":0.00071688385,"MEAN_MOTION_DOT":0.00019531,"MEAN_MOTION_DDOT":0},{"OBJECT_NAME":"STARLINK-34162","OBJECT_ID":"2025-101AA","EPOCH":"2025-12-15T09:33:52.333632","MEAN_MOTION":15.27590105,"ECCENTRICITY":0.00013592,"INCLINATION":43.0006,"RA_OF_ASC_NODE":114.0234,"ARG_OF_PERICENTER":272.623,"MEAN_ANOMALY":87.4466,"EPHEMERIS_TYPE":0,"CLASSIFICATION_TYPE":"U","NORAD_CAT_ID":64018,"ELEMENT_SET_NO":999,"REV_AT_EPOCH":3416,"BSTAR":0.00064313741,"MEAN_MOTION_DOT":0.00017483,"MEAN_MOTION_DDOT":0},{"OBJECT_NAME":"STARLINK-34155","OBJECT_ID":"2025-101AB","EPOCH":"2025-12-15T09:44:57.451200","MEAN_MOTION":15.27567001,"ECCENTRICITY":0.00011752,"INCLINATION":42.9995,"RA_OF_ASC_NODE":114.0767,"ARG_OF_PERICENTER":247.9412,"MEAN_ANOMALY":112.1315,"EPHEMERIS_TYPE":0,"CLASSIFICATION_TYPE":"U","NORAD_CAT_ID":64019,"ELEMENT_SET_NO":999,"REV_AT_EPOCH":3416,"BSTAR":0.00065137781,"MEAN_MOTION_DOT":0.00017698,"MEAN_MOTION_DDOT":0},{"OBJECT_NAME":"STARLINK-34141","OBJECT_ID":"2025-101AC","EPOCH":"2025-12-15T09:39:26.191872","MEAN_MOTION":15.27574113,"ECCENTRICITY":0.00014097,"INCLINATION":43.0018,"RA_OF_ASC_NODE":114.0507,"ARG_OF_PERICENTER":282.8902,"MEAN_ANOMALY":77.1792,"EPHEMERIS_TYPE":0,"CLASSIFICATION_TYPE":"U","NORAD_CAT_ID":64020,"ELEMENT_SET_NO":999,"REV_AT_EPOCH":3416,"BSTAR":0.00054415845,"MEAN_MOTION_DOT":0.00014739,"MEAN_MOTION_DDOT":0},{"OBJECT_NAME":"STARLINK-34062","OBJECT_ID":"2025-101AD","EPOCH":"2025-12-15T16:58:44.658912","MEAN_MOTION":15.27602166,"ECCENTRICITY":0.00016486,"INCLINATION":42.9954,"RA_OF_ASC_NODE":112.0329,"ARG_OF_PERICENTER":278.9026,"MEAN_ANOMALY":81.1639,"EPHEMERIS_TYPE":0,"CLASSIFICATION_TYPE":"U","NORAD_CAT_ID":64021,"ELEMENT_SET_NO":999,"REV_AT_EPOCH":3421,"BSTAR":0.0005827385,"MEAN_MOTION_DOT":0.00015819,"MEAN_MOTION_DDOT":0},{"OBJECT_NAME":"STARLINK-34051","OBJECT_ID":"2025-102A","EPOCH":"2025-12-15T21:58:22.246464","MEAN_MOTION":14.98783502,"ECCENTRICITY":0.00083691,"INCLINATION":70.0006,"RA_OF_ASC_NODE":325.6827,"ARG_OF_PERICENTER":276.9745,"MEAN_ANOMALY":83.0462,"EPHEMERIS_TYPE":0,"CLASSIFICATION_TYPE":"U","NORAD_CAT_ID":64022,"ELEMENT_SET_NO":999,"REV_AT_EPOCH":3340,"BSTAR":0.010777554,"MEAN_MOTION_DOT":0.00132576,"MEAN_MOTION_DDOT":0},{"OBJECT_NAME":"STARLINK-34184","OBJECT_ID":"2025-102B","EPOCH":"2025-12-15T22:00:01.999584","MEAN_MOTION":14.98318626,"ECCENTRICITY":0.00028062,"INCLINATION":70.0007,"RA_OF_ASC_NODE":325.7781,"ARG_OF_PERICENTER":269.4374,"MEAN_ANOMALY":6.3955,"EPHEMERIS_TYPE":0,"CLASSIFICATION_TYPE":"U","NORAD_CAT_ID":64023,"ELEMENT_SET_NO":999,"REV_AT_EPOCH":581,"BSTAR":0.0025459107,"MEAN_MOTION_DOT":0.00030407,"MEAN_MOTION_DDOT":0},{"OBJECT_NAME":"STARLINK-34087","OBJECT_ID":"2025-102C","EPOCH":"2025-12-15T21:34:24.713760","MEAN_MOTION":14.98342062,"ECCENTRICITY":0.0002867,"INCLINATION":70.0009,"RA_OF_ASC_NODE":325.6205,"ARG_OF_PERICENTER":269.3809,"MEAN_ANOMALY":90.7021,"EPHEMERIS_TYPE":0,"CLASSIFICATION_TYPE":"U","NORAD_CAT_ID":64024,"ELEMENT_SET_NO":999,"REV_AT_EPOCH":3329,"BSTAR":0.00043187204,"MEAN_MOTION_DOT":5.065e-5,"MEAN_MOTION_DDOT":0},{"OBJECT_NAME":"STARLINK-34088","OBJECT_ID":"2025-102D","EPOCH":"2025-12-15T08:09:33.928128","MEAN_MOTION":14.98329405,"ECCENTRICITY":0.00033286,"INCLINATION":70.0013,"RA_OF_ASC_NODE":327.279,"ARG_OF_PERICENTER":270.6831,"MEAN_ANOMALY":89.3947,"EPHEMERIS_TYPE":0,"CLASSIFICATION_TYPE":"U","NORAD_CAT_ID":64025,"ELEMENT_SET_NO":999,"REV_AT_EPOCH":3332,"BSTAR":0.00037371266,"MEAN_MOTION_DOT":4.369e-5,"MEAN_MOTION_DDOT":0},{"OBJECT_NAME":"STARLINK-33992","OBJECT_ID":"2025-102E","EPOCH":"2025-12-15T08:21:20.119392","MEAN_MOTION":14.98324494,"ECCENTRICITY":0.00029835,"INCLINATION":70.0011,"RA_OF_ASC_NODE":327.3136,"ARG_OF_PERICENTER":270.1211,"MEAN_ANOMALY":89.9606,"EPHEMERIS_TYPE":0,"CLASSIFICATION_TYPE":"U","NORAD_CAT_ID":64026,"ELEMENT_SET_NO":999,"REV_AT_EPOCH":3340,"BSTAR":-2.5210434e-5,"MEAN_MOTION_DOT":-3.94e-6,"MEAN_MOTION_DDOT":0},{"OBJECT_NAME":"STARLINK-33967","OBJECT_ID":"2025-102F","EPOCH":"2025-12-15T15:33:55.139904","MEAN_MOTION":14.98335561,"ECCENTRICITY":0.00027043,"INCLINATION":70.002,"RA_OF_ASC_NODE":326.3525,"ARG_OF_PERICENTER":272.0195,"MEAN_ANOMALY":88.0654,"EPHEMERIS_TYPE":0,"CLASSIFICATION_TYPE":"U","NORAD_CAT_ID":64027,"ELEMENT_SET_NO":999,"REV_AT_EPOCH":3330,"BSTAR":0.00020425434,"MEAN_MOTION_DOT":2.345e-5,"MEAN_MOTION_DDOT":0},{"OBJECT_NAME":"STARLINK-33953","OBJECT_ID":"2025-102G","EPOCH":"2025-12-15T22:52:30.872640","MEAN_MOTION":14.98335886,"ECCENTRICITY":0.00030146,"INCLINATION":70.0009,"RA_OF_ASC_NODE":325.4062,"ARG_OF_PERICENTER":270.3094,"MEAN_ANOMALY":89.7719,"EPHEMERIS_TYPE":0,"CLASSIFICATION_TYPE":"U","NORAD_CAT_ID":64028,"ELEMENT_SET_NO":999,"REV_AT_EPOCH":3351,"BSTAR":0.00026833612,"MEAN_MOTION_DOT":3.111e-5,"MEAN_MOTION_DDOT":0},{"OBJECT_NAME":"STARLINK-33790","OBJECT_ID":"2025-102H","EPOCH":"2025-12-15T22:00:01.999584","MEAN_MOTION":14.98325048,"ECCENTRICITY":0.00028981,"INCLINATION":70.0008,"RA_OF_ASC_NODE":325.7477,"ARG_OF_PERICENTER":268.7442,"MEAN_ANOMALY":28.8208,"EPHEMERIS_TYPE":0,"CLASSIFICATION_TYPE":"U","NORAD_CAT_ID":64029,"ELEMENT_SET_NO":999,"REV_AT_EPOCH":566,"BSTAR":0.0024265533,"MEAN_MOTION_DOT":0.00028976,"MEAN_MOTION_DDOT":0},{"OBJECT_NAME":"STARLINK-34030","OBJECT_ID":"2025-102J","EPOCH":"2025-12-15T08:09:20.699424","MEAN_MOTION":14.9832431,"ECCENTRICITY":0.00029079,"INCLINATION":70.0014,"RA_OF_ASC_NODE":327.283,"ARG_OF_PERICENTER":269.8618,"MEAN_ANOMALY":90.2208,"EPHEMERIS_TYPE":0,"CLASSIFICATION_TYPE":"U","NORAD_CAT_ID":64030,"ELEMENT_SET_NO":999,"REV_AT_EPOCH":3332,"BSTAR":0.00058840626,"MEAN_MOTION_DOT":6.934e-5,"MEAN_MOTION_DDOT":0},{"OBJECT_NAME":"STARLINK-34024","OBJECT_ID":"2025-102K","EPOCH":"2025-12-15T07:45:15.013152","MEAN_MOTION":14.98344929,"ECCENTRICITY":0.00028054,"INCLINATION":70.0012,"RA_OF_ASC_NODE":327.2234,"ARG_OF_PERICENTER":290.8981,"MEAN_ANOMALY":69.1878,"EPHEMERIS_TYPE":0,"CLASSIFICATION_TYPE":"U","NORAD_CAT_ID":64031,"ELEMENT_SET_NO":999,"REV_AT_EPOCH":3325,"BSTAR":0.0015062368,"MEAN_MOTION_DOT":0.00017932,"MEAN_MOTION_DDOT":0},{"OBJECT_NAME":"STARLINK-34019","OBJECT_ID":"2025-102L","EPOCH":"2025-12-15T23:04:31.891008","MEAN_MOTION":14.9834261,"ECCENTRICITY":0.00029351,"INCLINATION":70.0015,"RA_OF_ASC_NODE":325.4348,"ARG_OF_PERICENTER":272.9555,"MEAN_ANOMALY":87.1268,"EPHEMERIS_TYPE":0,"CLASSIFICATION_TYPE":"U","NORAD_CAT_ID":64032,"ELEMENT_SET_NO":999,"REV_AT_EPOCH":3342,"BSTAR":0.00046372315,"MEAN_MOTION_DOT":5.446e-5,"MEAN_MOTION_DDOT":0}]
